<?xml version="1.0" encoding="UTF-8"?>
<ndm xmlns:xsi="http://www.w3.org/2001/XMLSchema-instance" xsi:noNamespaceSchemaLocation="https://sanaregistry.org/r/ndmxml_unqualified/ndmxml-2.0.0-master-2.0.xsd">
<omm id="CCSDS_OMM_VERS" version="2.0">
<header><CREATION_DATE/><ORIGINATOR/></header><body><segment><metadata><OBJECT_NAME>KUIPER-00044</OBJECT_NAME><OBJECT_ID>2025-134F</OBJECT_ID><CENTER_NAME>EARTH</CENTER_NAME><REF_FRAME>TEME</REF_FRAME><TIME_SYSTEM>UTC</TIME_SYSTEM><MEAN_ELEMENT_THEORY>SGP4</MEAN_ELEMENT_THEORY></metadata><data><meanElements><EPOCH>2025-10-22T10:46:34.315392</EPOCH><MEAN_MOTION>14.79939133</MEAN_MOTION><ECCENTRICITY>.0012982</ECCENTRICITY><INCLINATION>51.8971</INCLINATION><RA_OF_ASC_NODE>137.8925</RA_OF_ASC_NODE><ARG_OF_PERICENTER>171.9275</ARG_OF_PERICENTER><MEAN_ANOMALY>188.1898</MEAN_ANOMALY></meanElements><tleParameters><EPHEMERIS_TYPE>0</EPHEMERIS_TYPE><CLASSIFICATION_TYPE>U</CLASSIFICATION_TYPE><NORAD_CAT_ID>64505</NORAD_CAT_ID><ELEMENT_SET_NO>999</ELEMENT_SET_NO><REV_AT_EPOCH>1941</REV_AT_EPOCH><BSTAR>.61288E-3</BSTAR><MEAN_MOTION_DOT>.4458E-4</MEAN_MOTION_DOT><MEAN_MOTION_DDOT>0</MEAN_MOTION_DDOT></tleParameters></data></segment></body></omm>
<omm id="CCSDS_OMM_VERS" version="2.0">
<header><CREATION_DATE/><ORIGINATOR/></header><body><segment><metadata><OBJECT_NAME>KUIPER-00046</OBJECT_NAME><OBJECT_ID>2025-134G</OBJECT_ID><CENTER_NAME>EARTH</CENTER_NAME><REF_FRAME>TEME</REF_FRAME><TIME_SYSTEM>UTC</TIME_SYSTEM><MEAN_ELEMENT_THEORY>SGP4</MEAN_ELEMENT_THEORY></metadata><data><meanElements><EPOCH>2025-10-22T10:48:38.359008</EPOCH><MEAN_MOTION>14.79602291</MEAN_MOTION><ECCENTRICITY>.0012191</ECCENTRICITY><INCLINATION>51.8968</INCLINATION><RA_OF_ASC_NODE>134.3288</RA_OF_ASC_NODE><ARG_OF_PERICENTER>181.2490</ARG_OF_PERICENTER><MEAN_ANOMALY>178.8443</MEAN_ANOMALY></meanElements><tleParameters><EPHEMERIS_TYPE>0</EPHEMERIS_TYPE><CLASSIFICATION_TYPE>U</CLASSIFICATION_TYPE><NORAD_CAT_ID>64506</NORAD_CAT_ID><ELEMENT_SET_NO>999</ELEMENT_SET_NO><REV_AT_EPOCH>1946</REV_AT_EPOCH><BSTAR>.6379E-3</BSTAR><MEAN_MOTION_DOT>.461E-4</MEAN_MOTION_DOT><MEAN_MOTION_DDOT>0</MEAN_MOTION_DDOT></tleParameters></data></segment></body></omm>
<omm id="CCSDS_OMM_VERS" version="2.0">
<header><CREATION_DATE/><ORIGINATOR/></header><body><segment><metadata><OBJECT_NAME>KUIPER-00047</OBJECT_NAME><OBJECT_ID>2025-134H</OBJECT_ID><CENTER_NAME>EARTH</CENTER_NAME><REF_FRAME>TEME</REF_FRAME><TIME_SYSTEM>UTC</TIME_SYSTEM><MEAN_ELEMENT_THEORY>SGP4</MEAN_ELEMENT_THEORY></metadata><data><meanElements><EPOCH>2025-10-22T11:18:22.818816</EPOCH><MEAN_MOTION>15.19925759</MEAN_MOTION><ECCENTRICITY>.0010548</ECCENTRICITY><INCLINATION>51.8624</INCLINATION><RA_OF_ASC_NODE>109.8319</RA_OF_ASC_NODE><ARG_OF_PERICENTER>200.0327</ARG_OF_PERICENTER><MEAN_ANOMALY>160.0239</MEAN_ANOMALY></meanElements><tleParameters><EPHEMERIS_TYPE>0</EPHEMERIS_TYPE><CLASSIFICATION_TYPE>U</CLASSIFICATION_TYPE><NORAD_CAT_ID>64507</NORAD_CAT_ID><ELEMENT_SET_NO>999</ELEMENT_SET_NO><REV_AT_EPOCH>1980</REV_AT_EPOCH><BSTAR>-.1807E-1</BSTAR><MEAN_MOTION_DOT>-.375144E-2</MEAN_MOTION_DOT><MEAN_MOTION_DDOT>0</MEAN_MOTION_DDOT></tleParameters></data></segment></body></omm>
<omm id="CCSDS_OMM_VERS" version="2.0">
<header><CREATION_DATE/><ORIGINATOR/></header><body><segment><metadata><OBJECT_NAME>KUIPER-00048</OBJECT_NAME><OBJECT_ID>2025-134J</OBJECT_ID><CENTER_NAME>EARTH</CENTER_NAME><REF_FRAME>TEME</REF_FRAME><TIME_SYSTEM>UTC</TIME_SYSTEM><MEAN_ELEMENT_THEORY>SGP4</MEAN_ELEMENT_THEORY></metadata><data><meanElements><EPOCH>2025-10-22T12:00:02.000160</EPOCH><MEAN_MOTION>15.09970641</MEAN_MOTION><ECCENTRICITY>.0002424</ECCENTRICITY><INCLINATION>51.8832</INCLINATION><RA_OF_ASC_NODE>108.7623</RA_OF_ASC_NODE><ARG_OF_PERICENTER>234.3056</ARG_OF_PERICENTER><MEAN_ANOMALY>162.0057</MEAN_ANOMALY></meanElements><tleParameters><EPHEMERIS_TYPE>0</EPHEMERIS_TYPE><CLASSIFICATION_TYPE>U</CLASSIFICATION_TYPE><NORAD_CAT_ID>64508</NORAD_CAT_ID><ELEMENT_SET_NO>999</ELEMENT_SET_NO><REV_AT_EPOCH>562</REV_AT_EPOCH><BSTAR>.18624E-2</BSTAR><MEAN_MOTION_DOT>.30439E-3</MEAN_MOTION_DOT><MEAN_MOTION_DDOT>0</MEAN_MOTION_DDOT></tleParameters></data></segment></body></omm>
<omm id="CCSDS_OMM_VERS" version="2.0">
<header><CREATION_DATE/><ORIGINATOR/></header><body><segment><metadata><OBJECT_NAME>KUIPER-00049</OBJECT_NAME><OBJECT_ID>2025-134K</OBJECT_ID><CENTER_NAME>EARTH</CENTER_NAME><REF_FRAME>TEME</REF_FRAME><TIME_SYSTEM>UTC</TIME_SYSTEM><MEAN_ELEMENT_THEORY>SGP4</MEAN_ELEMENT_THEORY></metadata><data><meanElements><EPOCH>2025-10-22T12:51:03.254112</EPOCH><MEAN_MOTION>14.79943571</MEAN_MOTION><ECCENTRICITY>.000392</ECCENTRICITY><INCLINATION>51.8983</INCLINATION><RA_OF_ASC_NODE>119.9678</RA_OF_ASC_NODE><ARG_OF_PERICENTER>164.4893</ARG_OF_PERICENTER><MEAN_ANOMALY>195.6190</MEAN_ANOMALY></meanElements><tleParameters><EPHEMERIS_TYPE>0</EPHEMERIS_TYPE><CLASSIFICATION_TYPE>U</CLASSIFICATION_TYPE><NORAD_CAT_ID>64509</NORAD_CAT_ID><ELEMENT_SET_NO>999</ELEMENT_SET_NO><REV_AT_EPOCH>1967</REV_AT_EPOCH><BSTAR>.55657E-3</BSTAR><MEAN_MOTION_DOT>.4025E-4</MEAN_MOTION_DOT><MEAN_MOTION_DDOT>0</MEAN_MOTION_DDOT></tleParameters></data></segment></body></omm>
<omm id="CCSDS_OMM_VERS" version="2.0">
<header><CREATION_DATE/><ORIGINATOR/></header><body><segment><metadata><OBJECT_NAME>KUIPER-00050</OBJECT_NAME><OBJECT_ID>2025-134L</OBJECT_ID><CENTER_NAME>EARTH</CENTER_NAME><REF_FRAME>TEME</REF_FRAME><TIME_SYSTEM>UTC</TIME_SYSTEM><MEAN_ELEMENT_THEORY>SGP4</MEAN_ELEMENT_THEORY></metadata><data><meanElements><EPOCH>2025-10-22T13:07:05.877120</EPOCH><MEAN_MOTION>14.95803246</MEAN_MOTION><ECCENTRICITY>.0005394</ECCENTRICITY><INCLINATION>51.8885</INCLINATION><RA_OF_ASC_NODE>119.2876</RA_OF_ASC_NODE><ARG_OF_PERICENTER>207.6864</ARG_OF_PERICENTER><MEAN_ANOMALY>152.3819</MEAN_ANOMALY></meanElements><tleParameters><EPHEMERIS_TYPE>0</EPHEMERIS_TYPE><CLASSIFICATION_TYPE>U</CLASSIFICATION_TYPE><NORAD_CAT_ID>64510</NORAD_CAT_ID><ELEMENT_SET_NO>999</ELEMENT_SET_NO><REV_AT_EPOCH>1968</REV_AT_EPOCH><BSTAR>.52769E-3</BSTAR><MEAN_MOTION_DOT>.5702E-4</MEAN_MOTION_DOT><MEAN_MOTION_DDOT>0</MEAN_MOTION_DDOT></tleParameters></data></segment></body></omm>
<omm id="CCSDS_OMM_VERS" version="2.0">
<header><CREATION_DATE/><ORIGINATOR/></header><body><segment><metadata><OBJECT_NAME>KUIPER-00051</OBJECT_NAME><OBJECT_ID>2025-134M</OBJECT_ID><CENTER_NAME>EARTH</CENTER_NAME><REF_FRAME>TEME</REF_FRAME><TIME_SYSTEM>UTC</TIME_SYSTEM><MEAN_ELEMENT_THEORY>SGP4</MEAN_ELEMENT_THEORY></metadata><data><meanElements><EPOCH>2025-10-22T12:55:16.781088</EPOCH><MEAN_MOTION>14.79970172</MEAN_MOTION><ECCENTRICITY>.0002356</ECCENTRICITY><INCLINATION>51.8997</INCLINATION><RA_OF_ASC_NODE>117.5146</RA_OF_ASC_NODE><ARG_OF_PERICENTER>185.4211</ARG_OF_PERICENTER><MEAN_ANOMALY>174.6726</MEAN_ANOMALY></meanElements><tleParameters><EPHEMERIS_TYPE>0</EPHEMERIS_TYPE><CLASSIFICATION_TYPE>U</CLASSIFICATION_TYPE><NORAD_CAT_ID>64511</NORAD_CAT_ID><ELEMENT_SET_NO>999</ELEMENT_SET_NO><REV_AT_EPOCH>1970</REV_AT_EPOCH><BSTAR>.43392E-3</BSTAR><MEAN_MOTION_DOT>.3091E-4</MEAN_MOTION_DOT><MEAN_MOTION_DDOT>0</MEAN_MOTION_DDOT></tleParameters></data></segment></body></omm>
<omm id="CCSDS_OMM_VERS" version="2.0">
<header><CREATION_DATE/><ORIGINATOR/></header><body><segment><metadata><OBJECT_NAME>KUIPER-00052</OBJECT_NAME><OBJECT_ID>2025-134N</OBJECT_ID><CENTER_NAME>EARTH</CENTER_NAME><REF_FRAME>TEME</REF_FRAME><TIME_SYSTEM>UTC</TIME_SYSTEM><MEAN_ELEMENT_THEORY>SGP4</MEAN_ELEMENT_THEORY></metadata><data><meanElements><EPOCH>2025-10-22T11:33:08.563968</EPOCH><MEAN_MOTION>15.62262156</MEAN_MOTION><ECCENTRICITY>.0006667</ECCENTRICITY><INCLINATION>51.8684</INCLINATION><RA_OF_ASC_NODE>93.8283</RA_OF_ASC_NODE><ARG_OF_PERICENTER>220.0412</ARG_OF_PERICENTER><MEAN_ANOMALY>140.0095</MEAN_ANOMALY></meanElements><tleParameters><EPHEMERIS_TYPE>0</EPHEMERIS_TYPE><CLASSIFICATION_TYPE>U</CLASSIFICATION_TYPE><NORAD_CAT_ID>64512</NORAD_CAT_ID><ELEMENT_SET_NO>999</ELEMENT_SET_NO><REV_AT_EPOCH>2002</REV_AT_EPOCH><BSTAR>.14448E-2</BSTAR><MEAN_MOTION_DOT>.131632E-2</MEAN_MOTION_DOT><MEAN_MOTION_DDOT>0</MEAN_MOTION_DDOT></tleParameters></data></segment></body></omm>

</ndm>
