KUIPER-00044            
1 64505U 25134F   25295.44900828  .00004458  00000+0  61288-3 0  9991
2 64505  51.8971 137.8925 0012982 171.9275 188.1898 14.79939133 19419
KUIPER-00046            
1 64506U 25134G   25295.45044397  .00004610  00000+0  63790-3 0  9993
2 64506  51.8968 134.3288 0012191 181.2490 178.8443 14.79602291 19464
KUIPER-00047            
1 64507U 25134H   25295.47109744 -.00375144  00000+0 -18070-1 0  9998
2 64507  51.8624 109.8319 0010548 200.0327 160.0239 15.19925759 19805
KUIPER-00048            
1 64508U 25134J   25295.50002315  .00030439  00000+0  18624-2 0  9998
2 64508  51.8832 108.7623 0002424 234.3056 162.0057 15.09970641  5620
KUIPER-00049            
1 64509U 25134K   25295.53545433  .00004025  00000+0  55657-3 0  9995
2 64509  51.8983 119.9678 0003920 164.4893 195.6190 14.79943571 19674
KUIPER-00050            
1 64510U 25134L   25295.54659580  .00005702  00000+0  52769-3 0  9991
2 64510  51.8885 119.2876 0005394 207.6864 152.3819 14.95803246 19686
KUIPER-00051            
1 64511U 25134M   25295.53838867  .00003091  00000+0  43392-3 0  9999
2 64511  51.8997 117.5146 0002356 185.4211 174.6726 14.79970172 19708
KUIPER-00052            
1 64512U 25134N   25295.48134912  .00131632  00000+0  14448-2 0  9996
2 64512  51.8684  93.8283 0006667 220.0412 140.0095 15.62262156 20020
